[{"OBJECT_NAME":"STARLINK-31628","OBJECT_ID":"2024-057Y","EPOCH":"2026-03-09T08:06:06.183648","MEAN_MOTION":15.27576972,"ECCENTRICITY":0.00016158,"INCLINATION":43.0018,"RA_OF_ASC_NODE":189.1939,"ARG_OF_PERICENTER":264.7725,"MEAN_ANOMALY":95.2943,"EPHEMERIS_TYPE":0,"CLASSIFICATION_TYPE":"U","NORAD_CAT_ID":59342,"ELEMENT_SET_NO":999,"REV_AT_EPOCH":10978,"BSTAR":1.9748271e-5,"MEAN_MOTION_DOT":2.81e-6,"MEAN_MOTION_DDOT":0},{"OBJECT_NAME":"OTTER","OBJECT_ID":"2025-009Q","EPOCH":"2026-03-09T17:21:07.902432","MEAN_MOTION":15.27809545,"ECCENTRICITY":0.00035728,"INCLINATION":97.4065,"RA_OF_ASC_NODE":151.3812,"ARG_OF_PERICENTER":310.771,"MEAN_ANOMALY":49.3219,"EPHEMERIS_TYPE":0,"CLASSIFICATION_TYPE":"U","NORAD_CAT_ID":62623,"ELEMENT_SET_NO":999,"REV_AT_EPOCH":6372,"BSTAR":0.00045151206,"MEAN_MOTION_DOT":0.00012198,"MEAN_MOTION_DDOT":0}]
